CTC2_L_00157001-01
1 77233U 22324IW  26037.47791667  .00000000  00000+0  00000-0 0  9999
2 77233  70.0000   0.0000 0000000   0.0000   0.0000 14.98994923    10
CTC2_L_00157001-02
1 77234U 23216ET  26037.47791667  .00000000  00000+0  00000-0 0  9991
2 77234  70.0000   0.0000 0000000   0.0000  90.0000 14.98994923    10
CTC2_L_00157001-03
1 77235U 24222ZE  26037.47791667  .00000000  00000+0  00000-0 0  9990
2 77235  70.0000   0.0000 0000000   0.0000 180.0000 14.98994923    11
CTC2_L_00157001-04
1 77236U 24844BA  26037.47791667  .00000000  00000+0  00000-0 0  9991
2 77236  70.0000   0.0000 0000000   0.0000 270.0000 14.98994923    12
CTC2_L_00157002-01
1 77237U 25696IO  26037.47791667  .00000000  00000+0  00000-0 0  9998
2 77237  70.0000  12.0000 0000000   0.0000  12.0000 14.98994923    10
CTC2_L_00157002-02
1 77238U 25690YC  26037.47791667  .00000000  00000+0  00000-0 0  9993
2 77238  70.0000  12.0000 0000000   0.0000 102.0000 14.98994923    11
CTC2_L_00157002-03
1 77239U 25511TV  26037.47791667  .00000000  00000+0  00000-0 0  9996
2 77239  70.0000  12.0000 0000000   0.0000 192.0000 14.98994923    11
CTC2_L_00157002-04
1 77240U 25659IY  26037.47791667  .00000000  00000+0  00000-0 0  9991
2 77240  70.0000  12.0000 0000000   0.0000 282.0000 14.98994923    13
CTC2_L_00157003-01
1 77241U 26116SX  26037.47791667  .00000000  00000+0  00000-0 0  9991
2 77241  70.0000  24.0000 0000000   0.0000  24.0000 14.98994923    11
CTC2_L_00157003-02
1 77242U 26656RJ  26037.47791667  .00000000  00000+0  00000-0 0  9991
2 77242  70.0000  24.0000 0000000   0.0000 114.0000 14.98994923    12
CTC2_L_00157003-03
1 77243U 25042GY  26037.47791667  .00000000  00000+0  00000-0 0  9990
2 77243  70.0000  24.0000 0000000   0.0000 204.0000 14.98994923    13
CTC2_L_00157003-04
1 77244U 25405CW  26037.47791667  .00000000  00000+0  00000-0 0  9994
2 77244  70.0000  24.0000 0000000   0.0000 294.0000 14.98994923    13
CTC2_L_00157004-01
1 77245U 24031NL  26037.47791667  .00000000  00000+0  00000-0 0  9999
2 77245  70.0000  36.0000 0000000   0.0000  36.0000 14.98994923    11
CTC2_L_00157004-02
1 77246U 24693EP  26037.47791667  .00000000  00000+0  00000-0 0  9994
2 77246  70.0000  36.0000 0000000   0.0000 126.0000 14.98994923    12
CTC2_L_00157004-03
1 77247U 26057CQ  26037.47791667  .00000000  00000+0  00000-0 0  9991
2 77247  70.0000  36.0000 0000000   0.0000 216.0000 14.98994923    13
CTC2_L_00157004-04
1 77248U 24305QY  26037.47791667  .00000000  00000+0  00000-0 0  9996
2 77248  70.0000  36.0000 0000000   0.0000 306.0000 14.98994923    14
CTC2_L_00157005-01
1 77249U 25537CX  26037.47791667  .00000000  00000+0  00000-0 0  9995
2 77249  70.0000  48.0000 0000000   0.0000  48.0000 14.98994923    11
CTC2_L_00157005-02
1 77250U 24447WX  26037.47791667  .00000000  00000+0  00000-0 0  9996
2 77250  70.0000  48.0000 0000000   0.0000 138.0000 14.98994923    13
CTC2_L_00157005-03
1 77251U 25914CM  26037.47791667  .00000000  00000+0  00000-0 0  9997
2 77251  70.0000  48.0000 0000000   0.0000 228.0000 14.98994923    14
CTC2_L_00157005-04
1 77252U 22280DN  26037.47791667  .00000000  00000+0  00000-0 0  9991
2 77252  70.0000  48.0000 0000000   0.0000 318.0000 14.98994923    15
CTC2_L_00157006-01
1 77253U 25385CG  26037.47791667  .00000000  00000+0  00000-0 0  9991
2 77253  70.0000  60.0000 0000000   0.0000  60.0000 14.98994923    14
CTC2_L_00157006-02
1 77254U 24473UN  26037.47791667  .00000000  00000+0  00000-0 0  9999
2 77254  70.0000  60.0000 0000000   0.0000 150.0000 14.98994923    15
CTC2_L_00157006-03
1 77255U 24679GB  26037.47791667  .00000000  00000+0  00000-0 0  9998
2 77255  70.0000  60.0000 0000000   0.0000 240.0000 14.98994923    16
CTC2_L_00157006-04
1 77256U 22330DB  26037.47791667  .00000000  00000+0  00000-0 0  9991
2 77256  70.0000  60.0000 0000000   0.0000 330.0000 14.98994923    17
CTC2_L_00157007-01
1 77257U 23566A   26037.47791667  .00000000  00000+0  00000-0 0  9994
2 77257  70.0000  72.0000 0000000   0.0000  72.0000 14.98994923    14
CTC2_L_00157007-02
1 77258U 23953PM  26037.47791667  .00000000  00000+0  00000-0 0  9995
2 77258  70.0000  72.0000 0000000   0.0000 162.0000 14.98994923    15
CTC2_L_00157007-03
1 77259U 23777QE  26037.47791667  .00000000  00000+0  00000-0 0  9990
2 77259  70.0000  72.0000 0000000   0.0000 252.0000 14.98994923    16
CTC2_L_00157007-04
1 77260U 23215AQ  26037.47791667  .00000000  00000+0  00000-0 0  9999
2 77260  70.0000  72.0000 0000000   0.0000 342.0000 14.98994923    18
CTC2_L_00157008-01
1 77261U 24230DM  26037.47791667  .00000000  00000+0  00000-0 0  9998
2 77261  70.0000  84.0000 0000000   0.0000  84.0000 14.98994923    15
CTC2_L_00157008-02
1 77262U 24236YY  26037.47791667  .00000000  00000+0  00000-0 0  9995
2 77262  70.0000  84.0000 0000000   0.0000 174.0000 14.98994923    16
CTC2_L_00157008-03
1 77263U 26322PT  26037.47791667  .00000000  00000+0  00000-0 0  9994
2 77263  70.0000  84.0000 0000000   0.0000 264.0000 14.98994923    17
CTC2_L_00157008-04
1 77264U 25574VH  26037.47791667  .00000000  00000+0  00000-0 0  9993
2 77264  70.0000  84.0000 0000000   0.0000 354.0000 14.98994923    18
CTC2_L_00157009-01
1 77265U 25018R   26037.47791667  .00000000  00000+0  00000-0 0  9997
2 77265  70.0000  96.0000 0000000   0.0000  96.0000 14.98994923    15
CTC2_L_00157009-02
1 77266U 24695Y   26037.47791667  .00000000  00000+0  00000-0 0  9998
2 77266  70.0000  96.0000 0000000   0.0000 186.0000 14.98994923    16
CTC2_L_00157009-03
1 77267U 25869FC  26037.47791667  .00000000  00000+0  00000-0 0  9993
2 77267  70.0000  96.0000 0000000   0.0000 276.0000 14.98994923    17
CTC2_L_00157009-04
1 77268U 26362LC  26037.47791667  .00000000  00000+0  00000-0 0  9993
2 77268  70.0000  96.0000 0000000   0.0000   6.0000 14.98994923    19
CTC2_L_00157010-01
1 77269U 26472IZ  26037.47791667  .00000000  00000+0  00000-0 0  9996
2 77269  70.0000 108.0000 0000000   0.0000 108.0000 14.98994923    17
CTC2_L_00157010-02
1 77270U 26003XR  26037.47791667  .00000000  00000+0  00000-0 0  9998
2 77270  70.0000 108.0000 0000000   0.0000 198.0000 14.98994923    18
CTC2_L_00157010-03
1 77271U 23522WC  26037.47791667  .00000000  00000+0  00000-0 0  9992
2 77271  70.0000 108.0000 0000000   0.0000 288.0000 14.98994923    19
CTC2_L_00157010-04
1 77272U 23683EB  26037.47791667  .00000000  00000+0  00000-0 0  9991
2 77272  70.0000 108.0000 0000000   0.0000  18.0000 14.98994923    11
CTC2_L_00157011-01
1 77273U 22073IX  26037.47791667  .00000000  00000+0  00000-0 0  9994
2 77273  70.0000 120.0000 0000000   0.0000 120.0000 14.98994923    10
CTC2_L_00157011-02
1 77274U 22105VS  26037.47791667  .00000000  00000+0  00000-0 0  9991
2 77274  70.0000 120.0000 0000000   0.0000 210.0000 14.98994923    11
CTC2_L_00157011-03
1 77275U 22053SO  26037.47791667  .00000000  00000+0  00000-0 0  9994
2 77275  70.0000 120.0000 0000000   0.0000 300.0000 14.98994923    12
CTC2_L_00157011-04
1 77276U 24006ER  26037.47791667  .00000000  00000+0  00000-0 0  9995
2 77276  70.0000 120.0000 0000000   0.0000  30.0000 14.98994923    13
CTC2_L_00157012-01
1 77277U 22833WA  26037.47791667  .00000000  00000+0  00000-0 0  9992
2 77277  70.0000 132.0000 0000000   0.0000 132.0000 14.98994923    10
CTC2_L_00157012-02
1 77278U 23341ZU  26037.47791667  .00000000  00000+0  00000-0 0  9998
2 77278  70.0000 132.0000 0000000   0.0000 222.0000 14.98994923    11
CTC2_L_00157012-03
1 77279U 22196JU  26037.47791667  .00000000  00000+0  00000-0 0  9996
2 77279  70.0000 132.0000 0000000   0.0000 312.0000 14.98994923    12
CTC2_L_00157012-04
1 77280U 24591RC  26037.47791667  .00000000  00000+0  00000-0 0  9999
2 77280  70.0000 132.0000 0000000   0.0000  42.0000 14.98994923    14
CTC2_L_00157013-01
1 77281U 26277PP  26037.47791667  .00000000  00000+0  00000-0 0  9993
2 77281  70.0000 144.0000 0000000   0.0000 144.0000 14.98994923    11
CTC2_L_00157013-02
1 77282U 26401TM  26037.47791667  .00000000  00000+0  00000-0 0  9993
2 77282  70.0000 144.0000 0000000   0.0000 234.0000 14.98994923    12
CTC2_L_00157013-03
1 77283U 23049RW  26037.47791667  .00000000  00000+0  00000-0 0  9999
2 77283  70.0000 144.0000 0000000   0.0000 324.0000 14.98994923    13
CTC2_L_00157013-04
1 77284U 23402CG  26037.47791667  .00000000  00000+0  00000-0 0  9993
2 77284  70.0000 144.0000 0000000   0.0000  54.0000 14.98994923    14
CTC2_L_00157014-01
1 77285U 26704PM  26037.47791667  .00000000  00000+0  00000-0 0  9992
2 77285  70.0000 156.0000 0000000   0.0000 156.0000 14.98994923    11
CTC2_L_00157014-02
1 77286U 23388DL  26037.47791667  .00000000  00000+0  00000-0 0  9998
2 77286  70.0000 156.0000 0000000   0.0000 246.0000 14.98994923    12
CTC2_L_00157014-03
1 77287U 23809EK  26037.47791667  .00000000  00000+0  00000-0 0  9997
2 77287  70.0000 156.0000 0000000   0.0000 336.0000 14.98994923    13
CTC2_L_00157014-04
1 77288U 25604IZ  26037.47791667  .00000000  00000+0  00000-0 0  9993
2 77288  70.0000 156.0000 0000000   0.0000  66.0000 14.98994923    14
CTC2_L_00157015-01
1 77289U 26359BO  26037.47791667  .00000000  00000+0  00000-0 0  9992
2 77289  70.0000 168.0000 0000000   0.0000 168.0000 14.98994923    11
CTC2_L_00157015-02
1 77290U 23779NJ  26037.47791667  .00000000  00000+0  00000-0 0  9997
2 77290  70.0000 168.0000 0000000   0.0000 258.0000 14.98994923    13
CTC2_L_00157015-03
1 77291U 23504MD  26037.47791667  .00000000  00000+0  00000-0 0  9994
2 77291  70.0000 168.0000 0000000   0.0000 348.0000 14.98994923    14
CTC2_L_00157015-04
1 77292U 22040AJ  26037.47791667  .00000000  00000+0  00000-0 0  9999
2 77292  70.0000 168.0000 0000000   0.0000  78.0000 14.98994923    15
CTC2_L_00157016-01
1 77293U 24238OT  26037.47791667  .00000000  00000+0  00000-0 0  9991
2 77293  70.0000 180.0000 0000000   0.0000 180.0000 14.98994923    14
CTC2_L_00157016-02
1 77294U 25670TH  26037.47791667  .00000000  00000+0  00000-0 0  9993
2 77294  70.0000 180.0000 0000000   0.0000 270.0000 14.98994923    15
